EARTHCARE               
1 59908U 24101A   24270.20038435  .00029262  00000+0  41059-3 0  9991
2 59908  96.9902  35.7213 0002481 100.8352 259.3184 15.56694438 18690
